1 35620U 97051QS  26111.84943004  .00004996  00000+0  13776-2 0  9994
2 35620  86.3901 162.4556 0136364 187.5263 172.3894 14.41287182618387
